{
  "type": "FeatureCollection",
  "features": [
    {
      "type": "Feature",
      "properties": {
        "norad_id": 38250,
        "name": "BEIDOU-2 M3 (C11)",
        "group": "beidou",
        "lat": -3.036179527762611,
        "lon": -50.901473430092665,
        "alt_km": 21519.85063441863,
        "timestamp": "2025-12-12T07:43:20.778391+00:00",
        "meta_object_name": "BEIDOU-2 M3 (C11)",
        "meta_object_id": "2012-018A",
        "meta_epoch": "2025-12-09T02:31:53.071968",
        "meta_mean_motion": 1.86229533,
        "meta_eccentricity": 0.00244707,
        "meta_inclination": 55.9232,
        "meta_ra_of_asc_node": 311.2798,
        "meta_arg_of_pericenter": 273.7022,
        "meta_mean_anomaly": 86.0063,
        "meta_ephemeris_type": 0,
        "meta_classification_type": "U",
        "meta_norad_cat_id": 38250,
        "meta_element_set_no": 999,
        "meta_rev_at_epoch": 9240,
        "meta_bstar": 0,
        "meta_mean_motion_dot": -7.5e-07,
        "meta_mean_motion_ddot": 0,
        "tle_line1": "1 38250U 12018A   25343.10547537 -.00000075  00000+0  00000+0 0  9990",
        "tle_line2": "2 38250  55.9232 311.2798 0024470 273.7022  86.0063  1.86229533 92404"
      },
      "geometry": {
        "type": "Point",
        "coordinates": [
          -50.901473430092665,
          -3.036179527762611
        ]
      }
    },
    {
      "type": "Feature",
      "properties": {
        "norad_id": 38251,
        "name": "BEIDOU-2 M4 (C12)",
        "group": "beidou",
        "lat": 33.51261487528705,
        "lon": -22.892243442122144,
        "alt_km": 21549.11102395072,
        "timestamp": "2025-12-12T07:43:20.778403+00:00",
        "meta_object_name": "BEIDOU-2 M4 (C12)",
        "meta_object_id": "2012-018B",
        "meta_epoch": "2025-12-09T00:54:02.015712",
        "meta_mean_motion": 1.86229239,
        "meta_eccentricity": 0.001562,
        "meta_inclination": 55.8247,
        "meta_ra_of_asc_node": 310.5113,
        "meta_arg_of_pericenter": 276.8164,
        "meta_mean_anomaly": 82.9941,
        "meta_ephemeris_type": 0,
        "meta_classification_type": "U",
        "meta_norad_cat_id": 38251,
        "meta_element_set_no": 999,
        "meta_rev_at_epoch": 9240,
        "meta_bstar": 0,
        "meta_mean_motion_dot": -7.4e-07,
        "meta_mean_motion_ddot": 0,
        "tle_line1": "1 38251U 12018B   25343.03752333 -.00000074  00000+0  00000+0 0  9994",
        "tle_line2": "2 38251  55.8247 310.5113 0015620 276.8164  82.9941  1.86229239 92404"
      },
      "geometry": {
        "type": "Point",
        "coordinates": [
          -22.892243442122144,
          33.51261487528705
        ]
      }
    },
    {
      "type": "Feature",
      "properties": {
        "norad_id": 38775,
        "name": "BEIDOU-2 M6 (C14)",
        "group": "beidou",
        "lat": -43.41453473221008,
        "lon": -71.95777697093712,
        "alt_km": 21543.366885582524,
        "timestamp": "2025-12-12T07:43:20.778415+00:00",
        "meta_object_name": "BEIDOU-2 M6 (C14)",
        "meta_object_id": "2012-050B",
        "meta_epoch": "2025-12-10T21:30:38.140128",
        "meta_mean_motion": 1.86230804,
        "meta_eccentricity": 0.00111381,
        "meta_inclination": 56.3769,
        "meta_ra_of_asc_node": 69.1285,
        "meta_arg_of_pericenter": 344.7378,
        "meta_mean_anomaly": 15.2504,
        "meta_ephemeris_type": 0,
        "meta_classification_type": "U",
        "meta_norad_cat_id": 38775,
        "meta_element_set_no": 999,
        "meta_rev_at_epoch": 8980,
        "meta_bstar": 0,
        "meta_mean_motion_dot": -5.9e-07,
        "meta_mean_motion_ddot": 0,
        "tle_line1": "1 38775U 12050B   25344.89627477 -.00000059  00000+0  00000+0 0  9999",
        "tle_line2": "2 38775  56.3769  69.1285 0011138 344.7378  15.2504  1.86230804 89803"
      },
      "geometry": {
        "type": "Point",
        "coordinates": [
          -71.95777697093712,
          -43.41453473221008
        ]
      }
    },
    {
      "type": "Feature",
      "properties": {
        "norad_id": 38953,
        "name": "BEIDOU-2 G6 (C02)",
        "group": "beidou",
        "lat": -1.7165801269481202,
        "lon": -79.02352322992905,
        "alt_km": 35783.540568160795,
        "timestamp": "2025-12-12T07:43:20.778426+00:00",
        "meta_object_name": "BEIDOU-2 G6 (C02)",
        "meta_object_id": "2012-059A",
        "meta_epoch": "2025-12-11T20:45:33.416640",
        "meta_mean_motion": 1.00269666,
        "meta_eccentricity": 0.0007739,
        "meta_inclination": 3.9473,
        "meta_ra_of_asc_node": 75.5133,
        "meta_arg_of_pericenter": 289.4412,
        "meta_mean_anomaly": 111.2689,
        "meta_ephemeris_type": 0,
        "meta_classification_type": "U",
        "meta_norad_cat_id": 38953,
        "meta_element_set_no": 999,
        "meta_rev_at_epoch": 4803,
        "meta_bstar": 0,
        "meta_mean_motion_dot": -1.67e-06,
        "meta_mean_motion_ddot": 0,
        "tle_line1": "1 38953U 12059A   25345.86497010 -.00000167  00000+0  00000+0 0  9992",
        "tle_line2": "2 38953   3.9473  75.5133 0007739 289.4412 111.2689  1.00269666 48035"
      },
      "geometry": {
        "type": "Point",
        "coordinates": [
          -79.02352322992905,
          -1.7165801269481202
        ]
      }
    },
    {
      "type": "Feature",
      "properties": {
        "norad_id": 40549,
        "name": "BEIDOU-3S IGSO-1S (C31)",
        "group": "beidou",
        "lat": -4.873080554686093,
        "lon": -66.48515241693569,
        "alt_km": 35925.92668953443,
        "timestamp": "2025-12-12T07:43:20.778438+00:00",
        "meta_object_name": "BEIDOU-3S IGSO-1S (C31)",
        "meta_object_id": "2015-019A",
        "meta_epoch": "2025-12-11T20:45:03.352032",
        "meta_mean_motion": 1.00292963,
        "meta_eccentricity": 0.0036964,
        "meta_inclination": 49.5542,
        "meta_ra_of_asc_node": 297.7211,
        "meta_arg_of_pericenter": 195.3449,
        "meta_mean_anomaly": 352.9961,
        "meta_ephemeris_type": 0,
        "meta_classification_type": "U",
        "meta_norad_cat_id": 40549,
        "meta_element_set_no": 999,
        "meta_rev_at_epoch": 3919,
        "meta_bstar": 0,
        "meta_mean_motion_dot": -1.91e-06,
        "meta_mean_motion_ddot": 0,
        "tle_line1": "1 40549U 15019A   25345.86462213 -.00000191  00000+0  00000+0 0  9999",
        "tle_line2": "2 40549  49.5542 297.7211 0036964 195.3449 352.9961  1.00292963 39194"
      },
      "geometry": {
        "type": "Point",
        "coordinates": [
          -66.48515241693569,
          -4.873080554686093
        ]
      }
    },
    {
      "type": "Feature",
      "properties": {
        "norad_id": 40748,
        "name": "BEIDOU-3S M2S (C58)",
        "group": "beidou",
        "lat": -54.633815845649835,
        "lon": -151.44460671142622,
        "alt_km": 21499.43555709806,
        "timestamp": "2025-12-12T07:43:20.778449+00:00",
        "meta_object_name": "BEIDOU-3S M2S (C58)",
        "meta_object_id": "2015-037A",
        "meta_epoch": "2025-12-09T05:49:19.735392",
        "meta_mean_motion": 1.86228936,
        "meta_eccentricity": 0.00124384,
        "meta_inclination": 55.042,
        "meta_ra_of_asc_node": 308.5839,
        "meta_arg_of_pericenter": 267.3919,
        "meta_mean_anomaly": 92.4547,
        "meta_ephemeris_type": 0,
        "meta_classification_type": "U",
        "meta_norad_cat_id": 40748,
        "meta_element_set_no": 999,
        "meta_rev_at_epoch": 7058,
        "meta_bstar": 0,
        "meta_mean_motion_dot": -7.5e-07,
        "meta_mean_motion_ddot": 0,
        "tle_line1": "1 40748U 15037A   25343.24258953 -.00000075  00000+0  00000+0 0  9995",
        "tle_line2": "2 40748  55.0420 308.5839 0012438 267.3919  92.4547  1.86228936 70588"
      },
      "geometry": {
        "type": "Point",
        "coordinates": [
          -151.44460671142622,
          -54.633815845649835
        ]
      }
    },
    {
      "type": "Feature",
      "properties": {
        "norad_id": 40749,
        "name": "BEIDOU-3S M1S (C57)",
        "group": "beidou",
        "lat": 50.31091521432236,
        "lon": 71.032352206257,
        "alt_km": 21523.412252550457,
        "timestamp": "2025-12-12T07:43:20.778461+00:00",
        "meta_object_name": "BEIDOU-3S M1S (C57)",
        "meta_object_id": "2015-037B",
        "meta_epoch": "2025-12-11T14:53:54.000096",
        "meta_mean_motion": 1.86253918,
        "meta_eccentricity": 0.00034406,
        "meta_inclination": 55.0364,
        "meta_ra_of_asc_node": 308.4915,
        "meta_arg_of_pericenter": 358.1692,
        "meta_mean_anomaly": 1.8205,
        "meta_ephemeris_type": 0,
        "meta_classification_type": "U",
        "meta_norad_cat_id": 40749,
        "meta_element_set_no": 999,
        "meta_rev_at_epoch": 7063,
        "meta_bstar": 0,
        "meta_mean_motion_dot": -8.8e-07,
        "meta_mean_motion_ddot": 0,
        "tle_line1": "1 40749U 15037B   25345.62076389 -.00000088  00000+0  00000+0 0  9995",
        "tle_line2": "2 40749  55.0364 308.4915 0003440 358.1692   1.8205  1.86253918 70639"
      },
      "geometry": {
        "type": "Point",
        "coordinates": [
          71.032352206257,
          50.31091521432236
        ]
      }
    }
  ]
}